{
  "type": "FeatureCollection",
  "features": [
    {
      "type": "Feature",
      "properties": {
        "norad_id": 38755,
        "name": "SPOT 6",
        "group": "resource",
        "lat": -60.46400304911884,
        "lon": -129.89571894890378,
        "alt_km": 705.8685099257054,
        "timestamp": "2025-12-26T05:31:12.156768+00:00",
        "meta_object_name": "SPOT 6",
        "meta_object_id": "2012-047A",
        "meta_epoch": "2025-12-25T23:28:37.310304",
        "meta_mean_motion": 14.58543606,
        "meta_eccentricity": 0.00012369,
        "meta_inclination": 98.1551,
        "meta_ra_of_asc_node": 64.5172,
        "meta_arg_of_pericenter": 77.3995,
        "meta_mean_anomaly": 282.7343,
        "meta_ephemeris_type": 0,
        "meta_classification_type": "U",
        "meta_norad_cat_id": 38755,
        "meta_element_set_no": 999,
        "meta_rev_at_epoch": 70780,
        "meta_bstar": 9.5800966e-05,
        "meta_mean_motion_dot": 4e-06,
        "meta_mean_motion_ddot": 0,
        "tle_line1": "1 38755U 12047A   25359.97820961  .00000400  00000+0  95801-4 0  9998",
        "tle_line2": "2 38755  98.1551  64.5172 0001236  77.3995 282.7343 14.58543606707809"
      },
      "geometry": {
        "type": "Point",
        "coordinates": [
          -129.89571894890378,
          -60.46400304911884
        ]
      }
    },
    {
      "type": "Feature",
      "properties": {
        "norad_id": 39019,
        "name": "PLEIADES 1B",
        "group": "resource",
        "lat": 39.46478894387178,
        "lon": -100.53312568093166,
        "alt_km": 694.3147176961038,
        "timestamp": "2025-12-26T05:31:12.156778+00:00",
        "meta_object_name": "PLEIADES 1B",
        "meta_object_id": "2012-068A",
        "meta_epoch": "2025-12-25T22:17:41.558208",
        "meta_mean_motion": 14.58564449,
        "meta_eccentricity": 0.00011509,
        "meta_inclination": 98.1776,
        "meta_ra_of_asc_node": 72.3715,
        "meta_arg_of_pericenter": 86.2727,
        "meta_mean_anomaly": 273.8604,
        "meta_ephemeris_type": 0,
        "meta_classification_type": "U",
        "meta_norad_cat_id": 39019,
        "meta_element_set_no": 999,
        "meta_rev_at_epoch": 69559,
        "meta_bstar": 9.3482426e-05,
        "meta_mean_motion_dot": 3.89e-06,
        "meta_mean_motion_ddot": 0,
        "tle_line1": "1 39019U 12068A   25359.92895322  .00000389  00000+0  93482-4 0  9992",
        "tle_line2": "2 39019  98.1776  72.3715 0001150  86.2727 273.8604 14.58564449695590"
      },
      "geometry": {
        "type": "Point",
        "coordinates": [
          -100.53312568093166,
          39.46478894387178
        ]
      }
    },
    {
      "type": "Feature",
      "properties": {
        "norad_id": 39030,
        "name": "GOKTURK 2",
        "group": "resource",
        "lat": 81.61188115174177,
        "lon": 134.85007237576926,
        "alt_km": 635.7353072480928,
        "timestamp": "2025-12-26T05:31:12.156788+00:00",
        "meta_object_name": "GOKTURK 2",
        "meta_object_id": "2012-073A",
        "meta_epoch": "2025-12-25T22:37:03.924192",
        "meta_mean_motion": 14.75311336,
        "meta_eccentricity": 0.0001474,
        "meta_inclination": 97.6885,
        "meta_ra_of_asc_node": 200.9466,
        "meta_arg_of_pericenter": 106.2946,
        "meta_mean_anomaly": 253.8426,
        "meta_ephemeris_type": 0,
        "meta_classification_type": "U",
        "meta_norad_cat_id": 39030,
        "meta_element_set_no": 999,
        "meta_rev_at_epoch": 69896,
        "meta_bstar": 0.00020777807,
        "meta_mean_motion_dot": 1.361e-05,
        "meta_mean_motion_ddot": 0,
        "tle_line1": "1 39030U 12073A   25359.94240653  .00001361  00000+0  20778-3 0  9992",
        "tle_line2": "2 39030  97.6885 200.9466 0001474 106.2946 253.8426 14.75311336698963"
      },
      "geometry": {
        "type": "Point",
        "coordinates": [
          134.85007237576926,
          81.61188115174177
        ]
      }
    },
    {
      "type": "Feature",
      "properties": {
        "norad_id": 39084,
        "name": "LANDSAT 8",
        "group": "resource",
        "lat": -58.98335388927951,
        "lon": -125.78263590039845,
        "alt_km": 710.2442319529855,
        "timestamp": "2025-12-26T05:31:12.156798+00:00",
        "meta_object_name": "LANDSAT 8",
        "meta_object_id": "2013-008A",
        "meta_epoch": "2025-12-25T21:49:48.274464",
        "meta_mean_motion": 14.57115413,
        "meta_eccentricity": 0.00010495,
        "meta_inclination": 98.2055,
        "meta_ra_of_asc_node": 67.7877,
        "meta_arg_of_pericenter": 93.355,
        "meta_mean_anomaly": 266.7768,
        "meta_ephemeris_type": 0,
        "meta_classification_type": "U",
        "meta_norad_cat_id": 39084,
        "meta_element_set_no": 999,
        "meta_rev_at_epoch": 67266,
        "meta_bstar": 0.00010154565,
        "meta_mean_motion_dot": 4.12e-06,
        "meta_mean_motion_ddot": 0,
        "tle_line1": "1 39084U 13008A   25359.90958651  .00000412  00000+0  10155-3 0  9994",
        "tle_line2": "2 39084  98.2055  67.7877 0001049  93.3550 266.7768 14.57115413672667"
      },
      "geometry": {
        "type": "Point",
        "coordinates": [
          -125.78263590039845,
          -58.98335388927951
        ]
      }
    },
    {
      "type": "Feature",
      "properties": {
        "norad_id": 39086,
        "name": "SARAL",
        "group": "resource",
        "lat": 54.17325338805952,
        "lon": 16.012467033144627,
        "alt_km": 775.7932495574059,
        "timestamp": "2025-12-26T05:31:12.156808+00:00",
        "meta_object_name": "SARAL",
        "meta_object_id": "2013-009A",
        "meta_epoch": "2025-12-25T22:14:07.270656",
        "meta_mean_motion": 14.32761479,
        "meta_eccentricity": 0.00029607,
        "meta_inclination": 98.5504,
        "meta_ra_of_asc_node": 183.6847,
        "meta_arg_of_pericenter": 83.7126,
        "meta_mean_anomaly": 276.4395,
        "meta_ephemeris_type": 0,
        "meta_classification_type": "U",
        "meta_norad_cat_id": 39086,
        "meta_element_set_no": 999,
        "meta_rev_at_epoch": 67079,
        "meta_bstar": 6.0924243e-05,
        "meta_mean_motion_dot": 1.22e-06,
        "meta_mean_motion_ddot": 0,
        "tle_line1": "1 39086U 13009A   25359.92647304  .00000122  00000+0  60924-4 0  9997",
        "tle_line2": "2 39086  98.5504 183.6847 0002960  83.7126 276.4395 14.32761479670799"
      },
      "geometry": {
        "type": "Point",
        "coordinates": [
          16.012467033144627,
          54.17325338805952
        ]
      }
    },
    {
      "type": "Feature",
      "properties": {
        "norad_id": 39150,
        "name": "GAOFEN-1",
        "group": "resource",
        "lat": -43.67295068806687,
        "lon": -116.99883859378674,
        "alt_km": 653.9654732587651,
        "timestamp": "2025-12-26T05:31:12.156818+00:00",
        "meta_object_name": "GAOFEN-1",
        "meta_object_id": "2013-018A",
        "meta_epoch": "2025-12-25T23:37:49.738080",
        "meta_mean_motion": 14.76503068,
        "meta_eccentricity": 0.00185665,
        "meta_inclination": 97.9307,
        "meta_ra_of_asc_node": 70.4083,
        "meta_arg_of_pericenter": 102.883,
        "meta_mean_anomaly": 257.4455,
        "meta_ephemeris_type": 0,
        "meta_classification_type": "U",
        "meta_norad_cat_id": 39150,
        "meta_element_set_no": 999,
        "meta_rev_at_epoch": 68268,
        "meta_bstar": 0.00014386314,
        "meta_mean_motion_dot": 9.54e-06,
        "meta_mean_motion_ddot": 0,
        "tle_line1": "1 39150U 13018A   25359.98460345  .00000954  00000+0  14386-3 0  9996",
        "tle_line2": "2 39150  97.9307  70.4083 0018566 102.8830 257.4455 14.76503068682687"
      },
      "geometry": {
        "type": "Point",
        "coordinates": [
          -116.99883859378674,
          -43.67295068806687
        ]
      }
    },
    {
      "type": "Feature",
      "properties": {
        "norad_id": 39160,
        "name": "VNREDSAT 1",
        "group": "resource",
        "lat": 80.43697430053038,
        "lon": -0.8523867623410168,
        "alt_km": 669.0275547017291,
        "timestamp": "2025-12-26T05:31:12.156828+00:00",
        "meta_object_name": "VNREDSAT 1",
        "meta_object_id": "2013-021B",
        "meta_epoch": "2025-12-25T22:34:40.952064",
        "meta_mean_motion": 14.64942205,
        "meta_eccentricity": 0.00011681,
        "meta_inclination": 97.9351,
        "meta_ra_of_asc_node": 54.7517,
        "meta_arg_of_pericenter": 83.5227,
        "meta_mean_anomaly": 276.6109,
        "meta_ephemeris_type": 0,
        "meta_classification_type": "U",
        "meta_norad_cat_id": 39160,
        "meta_element_set_no": 999,
        "meta_rev_at_epoch": 67492,
        "meta_bstar": 0.00016431252,
        "meta_mean_motion_dot": 8.34e-06,
        "meta_mean_motion_ddot": 0,
        "tle_line1": "1 39160U 13021B   25359.94075176  .00000834  00000+0  16431-3 0  9991",
        "tle_line2": "2 39160  97.9351  54.7517 0001168  83.5227 276.6109 14.64942205674923"
      },
      "geometry": {
        "type": "Point",
        "coordinates": [
          -0.8523867623410168,
          80.43697430053038
        ]
      }
    }
  ]
}